[{"OBJECT_NAME":"ONEWEB-0057","OBJECT_ID":"2020-008AF","EPOCH":"2026-03-09T23:01:17.428800","MEAN_MOTION":13.10373416,"ECCENTRICITY":0.0001514,"INCLINATION":87.8769,"RA_OF_ASC_NODE":56.027,"ARG_OF_PERICENTER":82.0805,"MEAN_ANOMALY":278.0494,"EPHEMERIS_TYPE":0,"CLASSIFICATION_TYPE":"U","NORAD_CAT_ID":45160,"ELEMENT_SET_NO":999,"REV_AT_EPOCH":29535,"BSTAR":0.0011924267,"MEAN_MOTION_DOT":4.29e-6,"MEAN_MOTION_DDOT":0},{"OBJECT_NAME":"UNKNOWN","OBJECT_ID":"","EPOCH":"2026-03-02T01:11:11.069952","MEAN_MOTION":13.04495247,"ECCENTRICITY":0.00305057,"INCLINATION":90.2299,"RA_OF_ASC_NODE":354.6364,"ARG_OF_PERICENTER":126.8857,"MEAN_ANOMALY":233.507,"EPHEMERIS_TYPE":0,"CLASSIFICATION_TYPE":"U","NORAD_CAT_ID":270176,"ELEMENT_SET_NO":999,"REV_AT_EPOCH":29681,"BSTAR":0.0018302714,"MEAN_MOTION_DOT":5.96e-6,"MEAN_MOTION_DDOT":0}]
